KUIPER-00044            
1 64505U 25134F   25217.16263431  .00012625  00000+0  67168-3 0  9994
2 64505  51.8739 127.3835 0011481 273.0060  86.9603 15.15537976  7296
KUIPER-00046            
1 64506U 25134G   25217.58335648 -.00815663  00000+0 -41847-1 0  9990
2 64506  51.8743 124.3247 0008920 281.2328  39.2899 15.18781525  7391
KUIPER-00047            
1 64507U 25134H   25217.12116182  .00012146  00000+0  36833-3 0  9995
2 64507  51.8630 125.6349 0009796 279.9596  80.0283 15.34485423  7338
KUIPER-00048            
1 64508U 25134J   25217.45652500  .00033467  00000+0  93040-3 0  9993
2 64508  51.8774 123.4435 0003534 256.4599 103.5994 15.36544350  7390
KUIPER-00049            
1 64509U 25134K   25217.15654072  .00051883  00000+0  14720-2 0  9996
2 64509  51.8714 125.1625 0006699 260.9807  99.0421 15.35691780  7788
KUIPER-00050            
1 64510U 25134L   25217.16265894  .00033528  00000+0  97123-3 0  9994
2 64510  51.8703 125.2040 0007446 255.0129 105.0033 15.35237139  7346
KUIPER-00051            
1 64511U 25134M   25217.01940524  .00030893  00000+0  88015-3 0  9991
2 64511  51.8726 125.7521 0005448 252.6857 107.3533 15.35811835  7703
KUIPER-00052            
1 64512U 25134N   25216.91668981  .01197632  00000+0  19155-1 0  9997
2 64512  51.8783 125.2953 0003775 285.3827 336.5566 15.49922138  5852
